H1 CPF 01  gfz 2021 05 13 12  6332 tandemx   
H2 1003001  6202 36605    2021 05 13 12 59 42 2021 05 18 00 00 42   120 1 1  0 0 0
H9
10 0 59347  46782.000000  0    1388028.606   6418935.559  -2091211.847
10 0 59347  46902.000000  0    1612061.094   6589204.556  -1213670.532
10 0 59347  47022.000000  0    1809892.898   6640751.701   -314795.040
10 0 59347  47142.000000  0    1975967.822   6573108.021    589615.753
10 0 59347  47262.000000  0    2105297.276   6387999.069   1483647.045
10 0 59347  47382.000000  0    2193588.119   6089306.928   2351556.100
10 0 59347  47502.000000  0    2237356.453   5682988.972   3178057.370
10 0 59347  47622.000000  0    2234024.892   5176956.178   3948599.265
10 0 59347  47742.000000  0    2181999.510   4580912.759   4649626.804
10 0 59347  47862.000000  0    2080725.283   3906159.560   5268824.109
10 0 59347  47982.000000  0    1930718.310   3165368.925   5795327.473
10 0 59347  48102.000000  0    1733576.534   2372340.556   6219911.652
10 0 59347  48222.000000  0    1491967.091   1541738.573   6535147.448
10 0 59347  48342.000000  0    1209590.731    688815.268   6735525.527
10 0 59347  48462.000000  0     891124.642   -170870.269   6817545.661
10 0 59347  48582.000000  0     542144.850  -1021734.580   6779775.155
10 0 59347  48702.000000  0     169028.329  -1848452.777   6622873.362
10 0 59347  48822.000000  0    -221163.728  -2636234.541   6349580.727
10 0 59347  48942.000000  0    -620819.015  -3371090.015   5964672.925
10 0 59347  49062.000000  0   -1021920.103  -4040078.888   5474880.132
10 0 59347  49182.000000  0   -1416202.222  -4631540.499   4888776.705
10 0 59347  49302.000000  0   -1795322.529  -5135304.313   4216639.570
10 0 59347  49422.000000  0   -2151035.907  -5542874.960   3470272.648
10 0 59347  49542.000000  0   -2475373.146  -5847584.609   2662800.082
10 0 59347  49662.000000  0   -2760816.938  -6044708.995   1808433.983
10 0 59347  49782.000000  0   -3000471.675  -6131546.263    922220.503
10 0 59347  49902.000000  0   -3188222.960  -6107455.783     19768.405
10 0 59347  50022.000000  0   -3318882.609  -5973855.508   -883033.989
10 0 59347  50142.000000  0   -3388315.562  -5734177.595  -1770307.710
10 0 59347  50262.000000  0   -3393545.372  -5393783.002  -2626470.910
10 0 59347  50382.000000  0   -3332835.643  -4959837.834  -3436519.148
10 0 59347  50502.000000  0   -3205744.889  -4441154.795  -4186291.520
10 0 59347  50622.000000  0   -3013154.382  -3848005.659  -4862716.729
10 0 59347  50742.000000  0   -2757269.523  -3191909.972  -5454035.935
10 0 59347  50862.000000  0   -2441595.314  -2485404.746  -5949998.990
10 0 59347  50982.000000  0   -2070886.369  -1741800.833  -6342032.173
10 0 59347  51102.000000  0   -1651072.086   -974930.358  -6623375.413
10 0 59347  51222.000000  0   -1189159.989   -198890.649  -6789186.806
10 0 59347  51342.000000  0    -693119.683    572210.206  -6836615.798
10 0 59347  51462.000000  0    -171747.545   1324503.087  -6764846.920
10 0 59347  51582.000000  0     365485.013   2044600.550  -6575111.862
10 0 59347  51702.000000  0     908598.330   2719829.356  -6270672.725
10 0 59347  51822.000000  0    1447286.484   3338450.848  -5856772.633
10 0 59347  51942.000000  0    1971108.342   3889864.279  -5340553.834
10 0 59347  52062.000000  0    2469686.797   4364790.161  -4730945.894
10 0 59347  52182.000000  0    2932912.750   4755432.074  -4038522.838
10 0 59347  52302.000000  0    3351149.552   5055612.545  -3275329.359
10 0 59347  52422.000000  0    3715434.545   5260879.615  -2454679.122
10 0 59347  52542.000000  0    4017672.908   5368580.772  -1590925.987
10 0 59347  52662.000000  0    4250817.863   5377902.278   -699213.320
10 0 59347  52782.000000  0    4409033.289   5289872.613    204795.415
10 0 59347  52902.000000  0    4487834.165   5107327.446   1105198.599
10 0 59347  53022.000000  0    4484199.376   4834837.956   1986143.391
10 0 59347  53142.000000  0    4396657.533   4478606.781   2832112.727
10 0 59347  53262.000000  0    4225340.328   4046328.995   3628208.991
10 0 59347  53382.000000  0    3972001.254   3547023.908   4360422.216
10 0 59347  53502.000000  0    3640003.124   2990843.029   5015878.998
10 0 59347  53622.000000  0    3234272.705   2388859.390   5583071.813
10 0 59347  53742.000000  0    2761221.335   1752841.150   6052057.201
10 0 59347  53862.000000  0    2228639.853   1095018.057   6414624.616
10 0 59347  53982.000000  0    1645566.333    427843.432   6664433.852
10 0 59347  54102.000000  0    1022129.759   -236240.995   6797119.875
10 0 59347  54222.000000  0     369372.524   -885036.478   6810366.002
10 0 59347  54342.000000  0    -300945.789  -1506811.812   6703941.666
10 0 59347  54462.000000  0    -976560.398  -2090515.247   6479705.645
10 0 59347  54582.000000  0   -1644925.014  -2625970.997   6141574.052
10 0 59347  54702.000000  0   -2293442.290  -3104056.628   5695456.092
10 0 59347  54822.000000  0   -2909701.233  -3516861.491   5149159.009
10 0 59347  54942.000000  0   -3481719.000  -3857822.510   4512258.062
10 0 59347  55062.000000  0   -3998178.378  -4121832.489   3795932.179
10 0 59347  55182.000000  0   -4448655.522  -4305320.041   3012770.315
10 0 59347  55302.000000  0   -4823834.621  -4406299.734   2176551.528
10 0 59347  55422.000000  0   -5115705.302  -4424390.961   1302000.033
10 0 59347  55542.000000  0   -5317735.942  -4360803.067    404520.189
10 0 59347  55662.000000  0   -5425019.029  -4218288.013   -500082.341
10 0 59347  55782.000000  0   -5434384.635  -4001061.581  -1395888.094
10 0 59347  55902.000000  0   -5344478.219  -3714694.207  -2267154.007
10 0 59347  56022.000000  0   -5155800.148  -3365974.503  -3098597.350
10 0 59347  56142.000000  0   -4870708.126  -2962750.993  -3875667.545
10 0 59347  56262.000000  0   -4493383.400  -2513755.724  -4584801.196
10 0 59347  56382.000000  0   -4029761.310  -2028414.342  -5213655.863
10 0 59347  56502.000000  0   -3487428.798  -1516647.539  -5751318.244
10 0 59347  56622.000000  0   -2875492.149   -988667.961  -6188484.057
10 0 59347  56742.000000  0   -2204418.078   -454777.478  -6517607.892
10 0 59347  56862.000000  0   -1485850.746     74831.043  -6733021.713
10 0 59347  56982.000000  0    -732409.873    590263.540  -6831020.734
10 0 59347  57102.000000  0      42526.588   1082104.458  -6809920.155
10 0 59347  57222.000000  0     825053.671   1541583.946  -6670080.566
10 0 59347  57342.000000  0    1600982.458   1960730.121  -6413904.997
10 0 59347  57462.000000  0    2356092.356   2332505.817  -6045802.115
10 0 59347  57582.000000  0    3076387.652   2650926.200  -5572118.248
10 0 59347  57702.000000  0    3748353.588   2911155.533  -5001037.668
10 0 59347  57822.000000  0    4359210.560   3109582.938  -4342453.939
10 0 59347  57942.000000  0    4897161.653   3243874.811  -3607809.077
10 0 59347  58062.000000  0    5351626.509   3313001.649  -2809902.672
10 0 59347  58182.000000  0    5713456.870   3317240.114  -1962675.212
10 0 59347  58302.000000  0    5975129.907   3258148.483  -1080965.883
10 0 59347  58422.000000  0    6130911.650   3138514.797   -180250.547
10 0 59347  58542.000000  0    6176987.512   2962279.487    723635.111
10 0 59347  58662.000000  0    6111555.220   2734433.016   1614781.378
10 0 59347  58782.000000  0    5934877.310   2460893.848   2477492.746
10 0 59347  58902.000000  0    5649292.694   2148367.217   3296573.646
10 0 59347  59022.000000  0    5259184.767   1804188.425   4057603.916
10 0 59347  59142.000000  0    4770908.071   1436155.673   4747197.722
10 0 59347  59262.000000  0    4192676.939   1052356.546   5353239.186
10 0 59347  59382.000000  0    3534419.719    660992.290   5865095.667
10 0 59347  59502.000000  0    2807597.654    270203.861   6273800.433
10 0 59347  59622.000000  0    2024998.757   -112094.920   6572202.291
10 0 59347  59742.000000  0    1200509.398   -478375.489   6755085.424
10 0 59347  59862.000000  0     348864.800   -821641.753   6819256.602
10 0 59347  59982.000000  0    -514615.882  -1135562.814   6763596.496
10 0 59347  60102.000000  0   -1374304.665  -1414589.520   6589077.303
10 0 59347  60222.000000  0   -2214546.419  -1654052.622   6298745.564
10 0 59347  60342.000000  0   -3019941.735  -1850240.175   5897672.392
10 0 59347  60462.000000  0   -3775630.614  -2000455.502   5392873.314
10 0 59347  60582.000000  0   -4467572.159  -2103054.596   4793191.398
10 0 59347  60702.000000  0   -5082811.640  -2157460.781   4109146.896
10 0 59347  60822.000000  0   -5609730.211  -2164155.696   3352755.585
10 0 59347  60942.000000  0   -6038272.135  -2124647.304   2537319.852
10 0 59347  61062.000000  0   -6360146.029  -2041416.855   1677195.093
10 0 59347  61182.000000  0   -6568994.942  -1917844.767    787531.905
10 0 59347  61302.000000  0   -6660526.349  -1758116.158   -115998.580
10 0 59347  61422.000000  0   -6632602.289  -1567108.974  -1017489.322
10 0 59347  61542.000000  0   -6485285.037  -1350267.870  -1901086.963
10 0 59347  61662.000000  0   -6220838.100  -1113467.545  -2751278.360
10 0 59347  61782.000000  0   -5843683.461   -862869.289  -3553168.407
10 0 59347  61902.000000  0   -5360316.668   -604773.402  -4292743.594
10 0 59347  62022.000000  0   -4779182.488   -345471.371  -4957115.709
10 0 59347  62142.000000  0   -4110514.732    -91102.215  -5534741.384
10 0 59347  62262.000000  0   -3366144.407    152483.899  -6015614.328
10 0 59347  62382.000000  0   -2559281.862    379852.240  -6391426.688
10 0 59347  62502.000000  0   -1704278.881    586097.237  -6655700.458
10 0 59347  62622.000000  0    -816373.062    766941.647  -6803888.582
10 0 59347  62742.000000  0      88580.040    918820.963  -6833443.588
10 0 59347  62862.000000  0     994382.255   1038950.359  -6743856.001
10 0 59347  62982.000000  0    1884775.560   1125373.955  -6536664.981
10 0 59347  63102.000000  0    2743728.312   1176996.649  -6215434.972
10 0 59347  63222.000000  0    3555719.278   1193596.958  -5785700.283
99
